STARLINK-1135_new
1 15049C 20006F   21326.12970839  .00000927  00000-0  62116-4 0  3265
2 15049  53.0531 128.1651 0001605  80.4893 180.5525 15.06389495    16
STARLINK-1135_old
1 25049C 20006F   21325.09185829  .00002301  00000-0  15421-3 0  3250
2 25049  53.0527 132.8240 0001655  78.8493 310.8247 15.06383665    11
